{
  "norad_id": 52872,
  "name": "STARLINK-4213",
  "history": [
    {
      "epoch": "2026-03-28T20:16:27.098976",
      "apogee_km": 540.8018755821877,
      "perigee_km": 538.6714472094236,
      "latitude_deg": -36.186683557614096,
      "longitude_deg": -91.70322336023673,
      "semi_major_axis_km": 6917.873661395805,
      "eccentricity": 0.00015398,
      "inclination_deg": 53.2174,
      "raan_deg": 288.1032,
      "arg_perigee_deg": 92.371,
      "mean_anomaly_deg": 267.7459,
      "mean_motion_rev_day": 15.08842201
    }
  ]
}