{"fetched_at":"2026-03-29T16:36:15Z","count":15609,"tles":[{"name":"STARLINK-4213","line1":"1 52872U 22062AU  26087.84475809  .00000172  00000+0  28877-4 0  9999","line2":"2 52872  53.2174 288.1032 0001539  92.3710 267.7459 15.08842201208957","category":"Starlink"}]}